[
    {
        "Altitude(m)": 705809.2299832465,
        "Argument of Periapsis(deg)": 0.004556048474650827,
        "Eccentricity": 0.0,
        "Inclination(deg)": 45.0,
        "Latitude(deg)": 38.26789648723069,
        "Longitude(deg)": -41.975459126835354,
        "Mean Anomaly(deg)": -240.84121334100763,
        "RAAN(deg)": 289.99569922341675,
        "Satellite Name": "Constellation 1 1283",
        "Satellite Number": 1283,
        "Semi-Major Axis(m)": 7083131.272910544,
        "Time(s)": 76
    },
    {
        "Altitude(m)": 705803.7013847925,
        "Argument of Periapsis(deg)": 0.004615996480896233,
        "Eccentricity": 0.0,
        "Inclination(deg)": 45.0,
        "Latitude(deg)": 38.24117590603453,
        "Longitude(deg)": -41.91023076593837,
        "Mean Anomaly(deg)": -240.78051220075778,
        "RAAN(deg)": 289.99564263425117,
        "Satellite Name": "Constellation 1 1283",
        "Satellite Number": 1283,
        "Semi-Major Axis(m)": 7083131.272910544,
        "Time(s)": 77
    },
    {
        "Altitude(m)": 705798.1671793564,
        "Argument of Periapsis(deg)": 0.004675944487141638,
        "Eccentricity": 0.0,
        "Inclination(deg)": 45.0,
        "Latitude(deg)": 38.21441428309568,
        "Longitude(deg)": -41.84505314537203,
        "Mean Anomaly(deg)": -240.71981106050785,
        "RAAN(deg)": 289.9955860450856,
        "Satellite Name": "Constellation 1 1283",
        "Satellite Number": 1283,
        "Semi-Major Axis(m)": 7083131.272910544,
        "Time(s)": 78
    },
    {
        "Altitude(m)": 705792.6274010662,
        "Argument of Periapsis(deg)": 0.004735892493387044,
        "Eccentricity": 0.0,
        "Inclination(deg)": 45.0,
        "Latitude(deg)": 38.187611687007916,
        "Longitude(deg)": -41.77992625682644,
        "Mean Anomaly(deg)": -240.65910992025792,
        "RAAN(deg)": 289.99552945592006,
        "Satellite Name": "Constellation 1 1283",
        "Satellite Number": 1283,
        "Semi-Major Axis(m)": 7083131.272910544,
        "Time(s)": 79
    },
    {
        "Altitude(m)": 705787.0820840945,
        "Argument of Periapsis(deg)": 0.004795840499632449,
        "Eccentricity": 0.0,
        "Inclination(deg)": 45.0,
        "Latitude(deg)": 38.1607681863347,
        "Longitude(deg)": -41.714850091638446,
        "Mean Anomaly(deg)": -240.5984087800081,
        "RAAN(deg)": 289.9954728667544,
        "Satellite Name": "Constellation 1 1283",
        "Satellite Number": 1283,
        "Semi-Major Axis(m)": 7083131.272910544,
        "Time(s)": 80
    },
    {
        "Altitude(m)": 705781.5312626614,
        "Argument of Periapsis(deg)": 0.004855788505877855,
        "Eccentricity": 0.0,
        "Inclination(deg)": 45.0,
        "Latitude(deg)": 38.13388384960872,
        "Longitude(deg)": -41.64982464079189,
        "Mean Anomaly(deg)": -240.53770763975817,
        "RAAN(deg)": 289.9954162775889,
        "Satellite Name": "Constellation 1 1283",
        "Satellite Number": 1283,
        "Semi-Major Axis(m)": 7083131.272910544,
        "Time(s)": 81
    },
    {
        "Altitude(m)": 705775.9749710222,
        "Argument of Periapsis(deg)": 0.00491573651212326,
        "Eccentricity": 0.0,
        "Inclination(deg)": 45.0,
        "Latitude(deg)": 38.106958745331355,
        "Longitude(deg)": -41.584850063016546,
        "Mean Anomaly(deg)": -240.4770064995083,
        "RAAN(deg)": 289.9953596884233,
        "Satellite Name": "Constellation 1 1283",
        "Satellite Number": 1283,
        "Semi-Major Axis(m)": 7083131.272910544,
        "Time(s)": 82
    },
    {
        "Altitude(m)": 705770.4132434815,
        "Argument of Periapsis(deg)": 0.004975684518368666,
        "Eccentricity": 0.0,
        "Inclination(deg)": 45.0,
        "Latitude(deg)": 38.07999294197291,
        "Longitude(deg)": -41.519926012402124,
        "Mean Anomaly(deg)": -240.4163053592584,
        "RAAN(deg)": 289.99530309925774,
        "Satellite Name": "Constellation 1 1283",
        "Satellite Number": 1283,
        "Semi-Major Axis(m)": 7083131.272910544,
        "Time(s)": 83
    },
    {
        "Altitude(m)": 705764.84611438,
        "Argument of Periapsis(deg)": 0.005035632524614072,
        "Eccentricity": 0.0,
        "Inclination(deg)": 45.0,
        "Latitude(deg)": 38.05298650797109,
        "Longitude(deg)": -41.45505264698055,
        "Mean Anomaly(deg)": -240.3556042190085,
        "RAAN(deg)": 289.9952465100922,
        "Satellite Name": "Constellation 1 1283",
        "Satellite Number": 1283,
        "Semi-Major Axis(m)": 7083131.272910544,
        "Time(s)": 84
    },
    {
        "Altitude(m)": 705759.2736181044,
        "Argument of Periapsis(deg)": 0.0050955805308594785,
        "Eccentricity": 0.0,
        "Inclination(deg)": 45.0,
        "Latitude(deg)": 38.02593951173123,
        "Longitude(deg)": -41.39022995634026,
        "Mean Anomaly(deg)": -240.29490307875858,
        "RAAN(deg)": 289.9951899209266,
        "Satellite Name": "Constellation 1 1283",
        "Satellite Number": 1283,
        "Semi-Major Axis(m)": 7083131.272910544,
        "Time(s)": 85
    },
    {
        "Altitude(m)": 705753.6957890833,
        "Argument of Periapsis(deg)": 0.005155528537104883,
        "Eccentricity": 0.0,
        "Inclination(deg)": 45.0,
        "Latitude(deg)": 37.99885202162586,
        "Longitude(deg)": -41.32545792972446,
        "Mean Anomaly(deg)": -240.23420193850868,
        "RAAN(deg)": 289.99513333176105,
        "Satellite Name": "Constellation 1 1283",
        "Satellite Number": 1283,
        "Semi-Major Axis(m)": 7083131.272910544,
        "Time(s)": 86
    },
    {
        "Altitude(m)": 705748.1126617853,
        "Argument of Periapsis(deg)": 0.0052154765433502885,
        "Eccentricity": 0.0,
        "Inclination(deg)": 45.0,
        "Latitude(deg)": 37.97172410599421,
        "Longitude(deg)": -41.26073655603276,
        "Mean Anomaly(deg)": -240.17350079825877,
        "RAAN(deg)": 289.9950767425955,
        "Satellite Name": "Constellation 1 1283",
        "Satellite Number": 1283,
        "Semi-Major Axis(m)": 7083131.272910544,
        "Time(s)": 87
    },
    {
        "Altitude(m)": 705742.5242707212,
        "Argument of Periapsis(deg)": 0.005275424549595694,
        "Eccentricity": 0.0,
        "Inclination(deg)": 45.0,
        "Latitude(deg)": 37.94455583314175,
        "Longitude(deg)": -41.19606582382226,
        "Mean Anomaly(deg)": -240.1127996580089,
        "RAAN(deg)": 289.9950201534299,
        "Satellite Name": "Constellation 1 1283",
        "Satellite Number": 1283,
        "Semi-Major Axis(m)": 7083131.272910544,
        "Time(s)": 88
    },
    {
        "Altitude(m)": 705736.9306504428,
        "Argument of Periapsis(deg)": 0.0053353725558411,
        "Eccentricity": 0.0,
        "Inclination(deg)": 45.0,
        "Latitude(deg)": 37.91734727133949,
        "Longitude(deg)": -41.13144588940588,
        "Mean Anomaly(deg)": -240.0520985177589,
        "RAAN(deg)": 289.9949635642643,
        "Satellite Name": "Constellation 1 1283",
        "Satellite Number": 1283,
        "Semi-Major Axis(m)": 7083131.272910544,
        "Time(s)": 89
    },
    {
        "Altitude(m)": 705731.3318355493,
        "Argument of Periapsis(deg)": 0.005395320562086505,
        "Eccentricity": 0.0,
        "Inclination(deg)": 45.0,
        "Latitude(deg)": 37.89009848882466,
        "Longitude(deg)": -41.066876404467074,
        "Mean Anomaly(deg)": -239.99139737750906,
        "RAAN(deg)": 289.99490697509873,
        "Satellite Name": "Constellation 1 1283",
        "Satellite Number": 1283,
        "Semi-Major Axis(m)": 7083131.272910544,
        "Time(s)": 90
    },
    {
        "Altitude(m)": 705725.7278606695,
        "Argument of Periapsis(deg)": 0.00545526856833191,
        "Eccentricity": 0.0,
        "Inclination(deg)": 45.0,
        "Latitude(deg)": 37.86280955379876,
        "Longitude(deg)": -41.00235752464134,
        "Mean Anomaly(deg)": -239.93069623725918,
        "RAAN(deg)": 289.9948503859332,
        "Satellite Name": "Constellation 1 1283",
        "Satellite Number": 1283,
        "Semi-Major Axis(m)": 7083131.272910544,
        "Time(s)": 91
    },
    {
        "Altitude(m)": 705720.118760481,
        "Argument of Periapsis(deg)": 0.005515216574577317,
        "Eccentricity": 0.0,
        "Inclination(deg)": 45.0,
        "Latitude(deg)": 37.83548053442817,
        "Longitude(deg)": -40.93788923713097,
        "Mean Anomaly(deg)": -239.86999509700925,
        "RAAN(deg)": 289.9947937967676,
        "Satellite Name": "Constellation 1 1283",
        "Satellite Number": 1283,
        "Semi-Major Axis(m)": 7083131.272910544,
        "Time(s)": 92
    },
    {
        "Altitude(m)": 705714.5045697046,
        "Argument of Periapsis(deg)": 0.005575164580822722,
        "Eccentricity": 0.0,
        "Inclination(deg)": 45.0,
        "Latitude(deg)": 37.80811149884341,
        "Longitude(deg)": -40.87347152880335,
        "Mean Anomaly(deg)": -239.80929395675938,
        "RAAN(deg)": 289.9947372076021,
        "Satellite Name": "Constellation 1 1283",
        "Satellite Number": 1283,
        "Semi-Major Axis(m)": 7083131.272910544,
        "Time(s)": 93
    },
    {
        "Altitude(m)": 705708.8853230912,
        "Argument of Periapsis(deg)": 0.005635112587068129,
        "Eccentricity": 0.0,
        "Inclination(deg)": 45.0,
        "Latitude(deg)": 37.780702515138934,
        "Longitude(deg)": -40.80910438619225,
        "Mean Anomaly(deg)": -239.7485928165095,
        "RAAN(deg)": 289.99468061843646,
        "Satellite Name": "Constellation 1 1283",
        "Satellite Number": 1283,
        "Semi-Major Axis(m)": 7083131.272910544,
        "Time(s)": 94
    }
]